[{"OBJECT_NAME":"OBJECT M","OBJECT_ID":"2025-155M","EPOCH":"2026-03-09T22:37:12.666144","MEAN_MOTION":15.33288683,"ECCENTRICITY":0.00088001,"INCLINATION":97.4429,"RA_OF_ASC_NODE":38.1052,"ARG_OF_PERICENTER":139.1253,"MEAN_ANOMALY":221.0651,"EPHEMERIS_TYPE":0,"CLASSIFICATION_TYPE":"U","NORAD_CAT_ID":64887,"ELEMENT_SET_NO":999,"REV_AT_EPOCH":6565,"BSTAR":0.00087834095,"MEAN_MOTION_DOT":0.00028279,"MEAN_MOTION_DDOT":0},{"OBJECT_NAME":"STARLINK-35950","OBJECT_ID":"2025-271F","EPOCH":"2026-03-09T11:42:55.467072","MEAN_MOTION":15.30178221,"ECCENTRICITY":0.0001255,"INCLINATION":53.1566,"RA_OF_ASC_NODE":141.0272,"ARG_OF_PERICENTER":65.2395,"MEAN_ANOMALY":294.8736,"EPHEMERIS_TYPE":0,"CLASSIFICATION_TYPE":"U","NORAD_CAT_ID":66622,"ELEMENT_SET_NO":999,"REV_AT_EPOCH":1753,"BSTAR":0.0013183901,"MEAN_MOTION_DOT":0.00038866,"MEAN_MOTION_DDOT":0}]
